STARLINK-34812          
1 66026U 25232X   25308.25002315 -.01795449  00000+0 -33245-1 0  9998
2 66026  53.1589 329.1167 0001337  70.3574 311.8265 15.51821575  3304
STARLINK-35341          
1 66027U 25232Y   25308.25002315 -.02029734  00000+0 -25783-1 0  9995
2 66027  53.1588 328.9177 0001516  77.4010  42.8422 15.62240968  3358
STARLINK-35339          
1 66028U 25232Z   25308.25002315 -.02035730  00000+0 -25865-1 0  9990
2 66028  53.1589 328.9140 0001473  79.3654  42.7919 15.62245884  3292
STARLINK-35399          
1 66029U 25232AA  25308.25002315 -.02033231  00000+0 -25832-1 0  9999
2 66029  53.1588 328.9104 0001526  80.2644  43.8128 15.62242408  3294
STARLINK-35431          
1 66030U 25232AB  25308.25002315 -.02032407  00000+0 -25819-1 0  9990
2 66030  53.1588 328.9056 0001621  78.2516  47.7412 15.62242107  3298
STARLINK-35326          
1 66031U 25232AC  25308.25002315 -.02032432  00000+0 -25820-1 0  9991
2 66031  53.1589 328.9020 0001604  78.1196  49.7916 15.62241538  3350
STARLINK-35311          
1 66032U 25232AD  25308.25002315 -.02032425  00000+0 -25819-1 0  9992
2 66032  53.1588 328.8978 0001533  79.4935  50.3321 15.62243334  3351
QIANFAN-91              
1 66033U 25233A   25308.23552873  .00000682  00000+0  28010-3 0  9995
2 66033  88.9950  66.4637 0016403 152.9769 207.2282 14.25915142  2553
QIANFAN-92              
1 66034U 25233B   25308.23486189  .00000674  00000+0  27622-3 0  9991
2 66034  88.9949  66.4634 0015989 155.4730 204.7227 14.25996929  2556
QIANFAN-93              
1 66035U 25233C   25308.23378980  .00000684  00000+0  27984-3 0  9993
2 66035  88.9950  66.4634 0015309 154.7995 205.3949 14.26080538  2559
QIANFAN-94              
1 66036U 25233D   25308.23352940  .00000687  00000+0  28106-3 0  9992
2 66036  88.9950  66.4634 0015381 154.4624 205.7332 14.26105727  2554
QIANFAN-95              
1 66037U 25233E   25308.23321802  .00000689  00000+0  28165-3 0  9993
2 66037  88.9950  66.4633 0015340 154.8566 205.3378 14.26150917  2555
