CCSDS_OMM_VERS = 2.0
CREATION_DATE  = 
ORIGINATOR     = 

OBJECT_NAME    = STARLINK-34812
OBJECT_ID      = 2025-232X
CENTER_NAME    = EARTH
REF_FRAME      = TEME
TIME_SYSTEM    = UTC
MEAN_ELEMENT_THEORY = SGP/SGP4

EPOCH          = 2025-11-04T06:00:02.000160
MEAN_MOTION    = 15.51821575
ECCENTRICITY   = .00013372
INCLINATION    = 53.1589
RA_OF_ASC_NODE = 329.1167
ARG_OF_PERICENTER = 70.3574
MEAN_ANOMALY   = 311.8265

EPHEMERIS_TYPE = 0
CLASSIFICATION_TYPE = U
NORAD_CAT_ID   = 66026
ELEMENT_SET_NO = 999
REV_AT_EPOCH   = 330
BSTAR          = -.33244924E-1
MEAN_MOTION_DOT = -.1795449E-1
MEAN_MOTION_DDOT = 0

CCSDS_OMM_VERS = 2.0
CREATION_DATE  = 
ORIGINATOR     = 

OBJECT_NAME    = STARLINK-35341
OBJECT_ID      = 2025-232Y
CENTER_NAME    = EARTH
REF_FRAME      = TEME
TIME_SYSTEM    = UTC
MEAN_ELEMENT_THEORY = SGP/SGP4

EPOCH          = 2025-11-04T06:00:02.000160
MEAN_MOTION    = 15.62240968
ECCENTRICITY   = .00015165
INCLINATION    = 53.1588
RA_OF_ASC_NODE = 328.9177
ARG_OF_PERICENTER = 77.4010
MEAN_ANOMALY   = 42.8422

EPHEMERIS_TYPE = 0
CLASSIFICATION_TYPE = U
NORAD_CAT_ID   = 66027
ELEMENT_SET_NO = 999
REV_AT_EPOCH   = 335
BSTAR          = -.25782631E-1
MEAN_MOTION_DOT = -.2029734E-1
MEAN_MOTION_DDOT = 0

CCSDS_OMM_VERS = 2.0
CREATION_DATE  = 
ORIGINATOR     = 

OBJECT_NAME    = STARLINK-35339
OBJECT_ID      = 2025-232Z
CENTER_NAME    = EARTH
REF_FRAME      = TEME
TIME_SYSTEM    = UTC
MEAN_ELEMENT_THEORY = SGP/SGP4

EPOCH          = 2025-11-04T06:00:02.000160
MEAN_MOTION    = 15.62245884
ECCENTRICITY   = .00014736
INCLINATION    = 53.1589
RA_OF_ASC_NODE = 328.9140
ARG_OF_PERICENTER = 79.3654
MEAN_ANOMALY   = 42.7919

EPHEMERIS_TYPE = 0
CLASSIFICATION_TYPE = U
NORAD_CAT_ID   = 66028
ELEMENT_SET_NO = 999
REV_AT_EPOCH   = 329
BSTAR          = -.25865229E-1
MEAN_MOTION_DOT = -.203573E-1
MEAN_MOTION_DDOT = 0

CCSDS_OMM_VERS = 2.0
CREATION_DATE  = 
ORIGINATOR     = 

OBJECT_NAME    = STARLINK-35399
OBJECT_ID      = 2025-232AA
CENTER_NAME    = EARTH
REF_FRAME      = TEME
TIME_SYSTEM    = UTC
MEAN_ELEMENT_THEORY = SGP/SGP4

EPOCH          = 2025-11-04T06:00:02.000160
MEAN_MOTION    = 15.62242408
ECCENTRICITY   = .00015269
INCLINATION    = 53.1588
RA_OF_ASC_NODE = 328.9104
ARG_OF_PERICENTER = 80.2644
MEAN_ANOMALY   = 43.8128

EPHEMERIS_TYPE = 0
CLASSIFICATION_TYPE = U
NORAD_CAT_ID   = 66029
ELEMENT_SET_NO = 999
REV_AT_EPOCH   = 329
BSTAR          = -.25831842E-1
MEAN_MOTION_DOT = -.2033231E-1
MEAN_MOTION_DDOT = 0

CCSDS_OMM_VERS = 2.0
CREATION_DATE  = 
ORIGINATOR     = 

OBJECT_NAME    = STARLINK-35431
OBJECT_ID      = 2025-232AB
CENTER_NAME    = EARTH
REF_FRAME      = TEME
TIME_SYSTEM    = UTC
MEAN_ELEMENT_THEORY = SGP/SGP4

EPOCH          = 2025-11-04T06:00:02.000160
MEAN_MOTION    = 15.62242107
ECCENTRICITY   = .00016212
INCLINATION    = 53.1588
RA_OF_ASC_NODE = 328.9056
ARG_OF_PERICENTER = 78.2516
MEAN_ANOMALY   = 47.7412

EPHEMERIS_TYPE = 0
CLASSIFICATION_TYPE = U
NORAD_CAT_ID   = 66030
ELEMENT_SET_NO = 999
REV_AT_EPOCH   = 329
BSTAR          = -.25819098E-1
MEAN_MOTION_DOT = -.2032407E-1
MEAN_MOTION_DDOT = 0

CCSDS_OMM_VERS = 2.0
CREATION_DATE  = 
ORIGINATOR     = 

OBJECT_NAME    = STARLINK-35326
OBJECT_ID      = 2025-232AC
CENTER_NAME    = EARTH
REF_FRAME      = TEME
TIME_SYSTEM    = UTC
MEAN_ELEMENT_THEORY = SGP/SGP4

EPOCH          = 2025-11-04T06:00:02.000160
MEAN_MOTION    = 15.62241538
ECCENTRICITY   = .00016045
INCLINATION    = 53.1589
RA_OF_ASC_NODE = 328.9020
ARG_OF_PERICENTER = 78.1196
MEAN_ANOMALY   = 49.7916

EPHEMERIS_TYPE = 0
CLASSIFICATION_TYPE = U
NORAD_CAT_ID   = 66031
ELEMENT_SET_NO = 999
REV_AT_EPOCH   = 335
BSTAR          = -.2582023E-1
MEAN_MOTION_DOT = -.2032432E-1
MEAN_MOTION_DDOT = 0

CCSDS_OMM_VERS = 2.0
CREATION_DATE  = 
ORIGINATOR     = 

OBJECT_NAME    = STARLINK-35311
OBJECT_ID      = 2025-232AD
CENTER_NAME    = EARTH
REF_FRAME      = TEME
TIME_SYSTEM    = UTC
MEAN_ELEMENT_THEORY = SGP/SGP4

EPOCH          = 2025-11-04T06:00:02.000160
MEAN_MOTION    = 15.62243334
ECCENTRICITY   = .0001533
INCLINATION    = 53.1588
RA_OF_ASC_NODE = 328.8978
ARG_OF_PERICENTER = 79.4935
MEAN_ANOMALY   = 50.3321

EPHEMERIS_TYPE = 0
CLASSIFICATION_TYPE = U
NORAD_CAT_ID   = 66032
ELEMENT_SET_NO = 999
REV_AT_EPOCH   = 335
BSTAR          = -.25819125E-1
MEAN_MOTION_DOT = -.2032425E-1
MEAN_MOTION_DDOT = 0

CCSDS_OMM_VERS = 2.0
CREATION_DATE  = 
ORIGINATOR     = 

OBJECT_NAME    = QIANFAN-91
OBJECT_ID      = 2025-233A
CENTER_NAME    = EARTH
REF_FRAME      = TEME
TIME_SYSTEM    = UTC
MEAN_ELEMENT_THEORY = SGP/SGP4

EPOCH          = 2025-11-04T05:39:09.682272
MEAN_MOTION    = 14.25915142
ECCENTRICITY   = .00164039
INCLINATION    = 88.9950
RA_OF_ASC_NODE = 66.4637
ARG_OF_PERICENTER = 152.9769
MEAN_ANOMALY   = 207.2282

EPHEMERIS_TYPE = 0
CLASSIFICATION_TYPE = U
NORAD_CAT_ID   = 66033
ELEMENT_SET_NO = 999
REV_AT_EPOCH   = 255
BSTAR          = .28009815E-3
MEAN_MOTION_DOT = .682E-5
MEAN_MOTION_DDOT = 0

CCSDS_OMM_VERS = 2.0
CREATION_DATE  = 
ORIGINATOR     = 

OBJECT_NAME    = QIANFAN-92
OBJECT_ID      = 2025-233B
CENTER_NAME    = EARTH
REF_FRAME      = TEME
TIME_SYSTEM    = UTC
MEAN_ELEMENT_THEORY = SGP/SGP4

EPOCH          = 2025-11-04T05:38:12.067296
MEAN_MOTION    = 14.25996929
ECCENTRICITY   = .00159898
INCLINATION    = 88.9949
RA_OF_ASC_NODE = 66.4634
ARG_OF_PERICENTER = 155.4730
MEAN_ANOMALY   = 204.7227

EPHEMERIS_TYPE = 0
CLASSIFICATION_TYPE = U
NORAD_CAT_ID   = 66034
ELEMENT_SET_NO = 999
REV_AT_EPOCH   = 255
BSTAR          = .27621508E-3
MEAN_MOTION_DOT = .674E-5
MEAN_MOTION_DDOT = 0

CCSDS_OMM_VERS = 2.0
CREATION_DATE  = 
ORIGINATOR     = 

OBJECT_NAME    = QIANFAN-93
OBJECT_ID      = 2025-233C
CENTER_NAME    = EARTH
REF_FRAME      = TEME
TIME_SYSTEM    = UTC
MEAN_ELEMENT_THEORY = SGP/SGP4

EPOCH          = 2025-11-04T05:36:39.438720
MEAN_MOTION    = 14.26080538
ECCENTRICITY   = .00153097
INCLINATION    = 88.9950
RA_OF_ASC_NODE = 66.4634
ARG_OF_PERICENTER = 154.7995
MEAN_ANOMALY   = 205.3949

EPHEMERIS_TYPE = 0
CLASSIFICATION_TYPE = U
NORAD_CAT_ID   = 66035
ELEMENT_SET_NO = 999
REV_AT_EPOCH   = 255
BSTAR          = .27983892E-3
MEAN_MOTION_DOT = .684E-5
MEAN_MOTION_DDOT = 0

CCSDS_OMM_VERS = 2.0
CREATION_DATE  = 
ORIGINATOR     = 

OBJECT_NAME    = QIANFAN-94
OBJECT_ID      = 2025-233D
CENTER_NAME    = EARTH
REF_FRAME      = TEME
TIME_SYSTEM    = UTC
MEAN_ELEMENT_THEORY = SGP/SGP4

EPOCH          = 2025-11-04T05:36:16.940160
MEAN_MOTION    = 14.26105727
ECCENTRICITY   = .00153818
INCLINATION    = 88.9950
RA_OF_ASC_NODE = 66.4634
ARG_OF_PERICENTER = 154.4624
MEAN_ANOMALY   = 205.7332

EPHEMERIS_TYPE = 0
CLASSIFICATION_TYPE = U
NORAD_CAT_ID   = 66036
ELEMENT_SET_NO = 999
REV_AT_EPOCH   = 255
BSTAR          = .28105982E-3
MEAN_MOTION_DOT = .687E-5
MEAN_MOTION_DDOT = 0

CCSDS_OMM_VERS = 2.0
CREATION_DATE  = 
ORIGINATOR     = 

OBJECT_NAME    = QIANFAN-95
OBJECT_ID      = 2025-233E
CENTER_NAME    = EARTH
REF_FRAME      = TEME
TIME_SYSTEM    = UTC
MEAN_ELEMENT_THEORY = SGP/SGP4

EPOCH          = 2025-11-04T05:35:50.036928
MEAN_MOTION    = 14.26150917
ECCENTRICITY   = .00153402
INCLINATION    = 88.9950
RA_OF_ASC_NODE = 66.4633
ARG_OF_PERICENTER = 154.8566
MEAN_ANOMALY   = 205.3378

EPHEMERIS_TYPE = 0
CLASSIFICATION_TYPE = U
NORAD_CAT_ID   = 66037
ELEMENT_SET_NO = 999
REV_AT_EPOCH   = 255
BSTAR          = .28165114E-3
MEAN_MOTION_DOT = .689E-5
MEAN_MOTION_DDOT = 0

